[{"OBJECT_NAME":"TIANHUI 1-04","OBJECT_ID":"2021-067A","EPOCH":"2026-03-09T22:48:57.841344","MEAN_MOTION":15.23549064,"ECCENTRICITY":8.015e-5,"INCLINATION":97.2864,"RA_OF_ASC_NODE":139.9989,"ARG_OF_PERICENTER":74.6542,"MEAN_ANOMALY":285.4784,"EPHEMERIS_TYPE":0,"CLASSIFICATION_TYPE":"U","NORAD_CAT_ID":49049,"ELEMENT_SET_NO":999,"REV_AT_EPOCH":25648,"BSTAR":1.6880446e-5,"MEAN_MOTION_DOT":3.36e-6,"MEAN_MOTION_DDOT":0},{"OBJECT_NAME":"CZ-3B R\/B","OBJECT_ID":"2019-078D","EPOCH":"2026-03-09T08:37:53.296032","MEAN_MOTION":4.81597761,"ECCENTRICITY":0.53934099,"INCLINATION":54.9406,"RA_OF_ASC_NODE":89.3617,"ARG_OF_PERICENTER":230.7871,"MEAN_ANOMALY":67.6082,"EPHEMERIS_TYPE":0,"CLASSIFICATION_TYPE":"U","NORAD_CAT_ID":44796,"ELEMENT_SET_NO":999,"REV_AT_EPOCH":10864,"BSTAR":0.0005995959,"MEAN_MOTION_DOT":4.13e-6,"MEAN_MOTION_DDOT":0}]
